FENGYUN 1C DEB          
1 38725U 99025ETS 17343.63271211  .00001060  00000-0  54437-3 0  9994
2 38725  98.9331  43.7360 0046093  50.3802 310.1427 14.16963089352154
